{
  "type": "FeatureCollection",
  "features": [
    {
      "type": "Feature",
      "properties": {
        "norad_id": 29486,
        "name": "GPS BIIRM-2 (PRN 31)",
        "group": "gps-ops",
        "lat": 54.62543539972137,
        "lon": -114.15106257779253,
        "alt_km": 19945.959014007876,
        "timestamp": "2025-12-08T03:50:07.256215+00:00",
        "meta_object_name": "GPS BIIRM-2 (PRN 31)",
        "meta_object_id": "2006-042A",
        "meta_epoch": "2025-12-06T13:25:33.106944",
        "meta_mean_motion": 2.00554295,
        "meta_eccentricity": 0.01073619,
        "meta_inclination": 54.6932,
        "meta_ra_of_asc_node": 158.9861,
        "meta_arg_of_pericenter": 51.8104,
        "meta_mean_anomaly": 320.1566,
        "meta_ephemeris_type": 0,
        "meta_classification_type": "U",
        "meta_norad_cat_id": 29486,
        "meta_element_set_no": 999,
        "meta_rev_at_epoch": 14053,
        "meta_bstar": 0,
        "meta_mean_motion_dot": 6.3e-07,
        "meta_mean_motion_ddot": 0,
        "tle_line1": "1 29486U 06042A   25340.55941096  .00000063  00000+0  00000+0 0  9991",
        "tle_line2": "2 29486  54.6932 158.9861 0107361  51.8104 320.1566  2.00554295140533"
      },
      "geometry": {
        "type": "Point",
        "coordinates": [
          -114.15106257779253,
          54.62543539972137
        ]
      }
    },
    {
      "type": "Feature",
      "properties": {
        "norad_id": 29601,
        "name": "GPS BIIRM-3 (PRN 12)",
        "group": "gps-ops",
        "lat": 27.524000747944136,
        "lon": 20.16707876898306,
        "alt_km": 20054.234535650092,
        "timestamp": "2025-12-08T03:50:07.256227+00:00",
        "meta_object_name": "GPS BIIRM-3 (PRN 12)",
        "meta_object_id": "2006-052A",
        "meta_epoch": "2025-12-06T23:07:38.134848",
        "meta_mean_motion": 2.0057305,
        "meta_eccentricity": 0.00876251,
        "meta_inclination": 54.9717,
        "meta_ra_of_asc_node": 221.6275,
        "meta_arg_of_pericenter": 87.379,
        "meta_mean_anomaly": 273.714,
        "meta_ephemeris_type": 0,
        "meta_classification_type": "U",
        "meta_norad_cat_id": 29601,
        "meta_element_set_no": 999,
        "meta_rev_at_epoch": 13955,
        "meta_bstar": 0,
        "meta_mean_motion_dot": 3.6e-07,
        "meta_mean_motion_ddot": 0,
        "tle_line1": "1 29601U 06052A   25340.96363582  .00000036  00000+0  00000+0 0  9994",
        "tle_line2": "2 29601  54.9717 221.6275 0087625  87.3790 273.7140  2.00573050139559"
      },
      "geometry": {
        "type": "Point",
        "coordinates": [
          20.16707876898306,
          27.524000747944136
        ]
      }
    },
    {
      "type": "Feature",
      "properties": {
        "norad_id": 32260,
        "name": "GPS BIIRM-4 (PRN 15)",
        "group": "gps-ops",
        "lat": -51.58161983108946,
        "lon": 21.442527987527253,
        "alt_km": 20598.546132513988,
        "timestamp": "2025-12-08T03:50:07.256238+00:00",
        "meta_object_name": "GPS BIIRM-4 (PRN 15)",
        "meta_object_id": "2007-047A",
        "meta_epoch": "2025-12-07T06:27:37.335168",
        "meta_mean_motion": 2.00564639,
        "meta_eccentricity": 0.01643187,
        "meta_inclination": 53.9516,
        "meta_ra_of_asc_node": 87.9845,
        "meta_arg_of_pericenter": 85.1858,
        "meta_mean_anomaly": 276.6734,
        "meta_ephemeris_type": 0,
        "meta_classification_type": "U",
        "meta_norad_cat_id": 32260,
        "meta_element_set_no": 999,
        "meta_rev_at_epoch": 13296,
        "meta_bstar": 0,
        "meta_mean_motion_dot": -2e-07,
        "meta_mean_motion_ddot": 0,
        "tle_line1": "1 32260U 07047A   25341.26918212 -.00000020  00000+0  00000+0 0  9998",
        "tle_line2": "2 32260  53.9516  87.9845 0164318  85.1858 276.6734  2.00564639132964"
      },
      "geometry": {
        "type": "Point",
        "coordinates": [
          21.442527987527253,
          -51.58161983108946
        ]
      }
    },
    {
      "type": "Feature",
      "properties": {
        "norad_id": 32384,
        "name": "GPS BIIRM-5 (PRN 29)",
        "group": "gps-ops",
        "lat": 41.38934455846358,
        "lon": -40.422449098045014,
        "alt_km": 20203.623175782373,
        "timestamp": "2025-12-08T03:50:07.256249+00:00",
        "meta_object_name": "GPS BIIRM-5 (PRN 29)",
        "meta_object_id": "2007-062A",
        "meta_epoch": "2025-12-07T07:51:30.252672",
        "meta_mean_motion": 2.00576914,
        "meta_eccentricity": 0.00322165,
        "meta_inclination": 55.187,
        "meta_ra_of_asc_node": 281.863,
        "meta_arg_of_pericenter": 162.6337,
        "meta_mean_anomaly": 10.2823,
        "meta_ephemeris_type": 0,
        "meta_classification_type": "U",
        "meta_norad_cat_id": 32384,
        "meta_element_set_no": 999,
        "meta_rev_at_epoch": 13166,
        "meta_bstar": 0,
        "meta_mean_motion_dot": -4e-07,
        "meta_mean_motion_ddot": 0,
        "tle_line1": "1 32384U 07062A   25341.32743348 -.00000040  00000+0  00000+0 0  9997",
        "tle_line2": "2 32384  55.1870 281.8630 0032216 162.6337  10.2823  2.00576914131665"
      },
      "geometry": {
        "type": "Point",
        "coordinates": [
          -40.422449098045014,
          41.38934455846358
        ]
      }
    },
    {
      "type": "Feature",
      "properties": {
        "norad_id": 32711,
        "name": "GPS BIIRM-6 (PRN 07)",
        "group": "gps-ops",
        "lat": -15.508285686204779,
        "lon": 146.110657801631,
        "alt_km": 20228.690010376802,
        "timestamp": "2025-12-08T03:50:07.256260+00:00",
        "meta_object_name": "GPS BIIRM-6 (PRN 07)",
        "meta_object_id": "2008-012A",
        "meta_epoch": "2025-12-06T16:34:57.264384",
        "meta_mean_motion": 2.00565269,
        "meta_eccentricity": 0.02022029,
        "meta_inclination": 54.4762,
        "meta_ra_of_asc_node": 157.6144,
        "meta_arg_of_pericenter": 244.8815,
        "meta_mean_anomaly": 113.0202,
        "meta_ephemeris_type": 0,
        "meta_classification_type": "U",
        "meta_norad_cat_id": 32711,
        "meta_element_set_no": 999,
        "meta_rev_at_epoch": 12989,
        "meta_bstar": 0,
        "meta_mean_motion_dot": 6.1e-07,
        "meta_mean_motion_ddot": 0,
        "tle_line1": "1 32711U 08012A   25340.69094056  .00000061  00000+0  00000+0 0  9993",
        "tle_line2": "2 32711  54.4762 157.6144 0202202 244.8815 113.0202  2.00565269129895"
      },
      "geometry": {
        "type": "Point",
        "coordinates": [
          146.110657801631,
          -15.508285686204779
        ]
      }
    },
    {
      "type": "Feature",
      "properties": {
        "norad_id": 35752,
        "name": "GPS BIIRM-8 (PRN 05)",
        "group": "gps-ops",
        "lat": -1.757386557528393,
        "lon": 33.80043186602626,
        "alt_km": 20167.433972833536,
        "timestamp": "2025-12-08T03:50:07.256271+00:00",
        "meta_object_name": "GPS BIIRM-8 (PRN 05)",
        "meta_object_id": "2009-043A",
        "meta_epoch": "2025-12-07T06:57:18.338976",
        "meta_mean_motion": 2.00565889,
        "meta_eccentricity": 0.00519498,
        "meta_inclination": 56.0873,
        "meta_ra_of_asc_node": 34.9981,
        "meta_arg_of_pericenter": 82.001,
        "meta_mean_anomaly": 8.335,
        "meta_ephemeris_type": 0,
        "meta_classification_type": "U",
        "meta_norad_cat_id": 35752,
        "meta_element_set_no": 999,
        "meta_rev_at_epoch": 11951,
        "meta_bstar": 0,
        "meta_mean_motion_dot": -7.6e-07,
        "meta_mean_motion_ddot": 0,
        "tle_line1": "1 35752U 09043A   25341.28979559 -.00000076  00000+0  00000+0 0  9999",
        "tle_line2": "2 35752  56.0873  34.9981 0051949  82.0010   8.3350  2.00565889119515"
      },
      "geometry": {
        "type": "Point",
        "coordinates": [
          33.80043186602626,
          -1.757386557528393
        ]
      }
    },
    {
      "type": "Feature",
      "properties": {
        "norad_id": 36585,
        "name": "GPS BIIF-1  (PRN 25)",
        "group": "gps-ops",
        "lat": 45.70195441525858,
        "lon": -11.160775701359618,
        "alt_km": 19974.51630272872,
        "timestamp": "2025-12-08T03:50:07.256282+00:00",
        "meta_object_name": "GPS BIIF-1  (PRN 25)",
        "meta_object_id": "2010-022A",
        "meta_epoch": "2025-12-07T05:49:32.737728",
        "meta_mean_motion": 2.00552848,
        "meta_eccentricity": 0.01258847,
        "meta_inclination": 54.3011,
        "meta_ra_of_asc_node": 216.2957,
        "meta_arg_of_pericenter": 65.0144,
        "meta_mean_anomaly": 109.9417,
        "meta_ephemeris_type": 0,
        "meta_classification_type": "U",
        "meta_norad_cat_id": 36585,
        "meta_element_set_no": 999,
        "meta_rev_at_epoch": 11374,
        "meta_bstar": 0,
        "meta_mean_motion_dot": 3.7e-07,
        "meta_mean_motion_ddot": 0,
        "tle_line1": "1 36585U 10022A   25341.24274002  .00000037  00000+0  00000+0 0  9996",
        "tle_line2": "2 36585  54.3011 216.2957 0125884  65.0144 109.9417  2.00552848113744"
      },
      "geometry": {
        "type": "Point",
        "coordinates": [
          -11.160775701359618,
          45.70195441525858
        ]
      }
    }
  ]
}